[{"OBJECT_NAME":"ONEWEB-0568","OBJECT_ID":"2023-043S","EPOCH":"2026-06-06T14:23:04.365312","MEAN_MOTION":13.16594721,"ECCENTRICITY":0.0002286,"INCLINATION":87.9106,"RA_OF_ASC_NODE":230.874,"ARG_OF_PERICENTER":99.3073,"MEAN_ANOMALY":260.8317,"EPHEMERIS_TYPE":0,"CLASSIFICATION_TYPE":"U","NORAD_CAT_ID":56062,"ELEMENT_SET_NO":999,"REV_AT_EPOCH":15758,"BSTAR":0.00016564000000000002,"MEAN_MOTION_DOT":7.6e-07,"MEAN_MOTION_DDOT":0.0},{"OBJECT_NAME":"ONEWEB-0574","OBJECT_ID":"2023-043T","EPOCH":"2026-06-06T12:26:45.029472","MEAN_MOTION":13.2182674,"ECCENTRICITY":0.0002087,"INCLINATION":87.9279,"RA_OF_ASC_NODE":246.0961,"ARG_OF_PERICENTER":94.6735,"MEAN_ANOMALY":265.4637,"EPHEMERIS_TYPE":0,"CLASSIFICATION_TYPE":"U","NORAD_CAT_ID":56063,"ELEMENT_SET_NO":999,"REV_AT_EPOCH":15686,"BSTAR":0.00028834,"MEAN_MOTION_DOT":1.32e-06,"MEAN_MOTION_DDOT":0.0},{"OBJECT_NAME":"ONEWEB-0575","OBJECT_ID":"2023-043U","EPOCH":"2026-06-06T14:13:57.238176","MEAN_MOTION":13.16594559,"ECCENTRICITY":0.0002369,"INCLINATION":87.9106,"RA_OF_ASC_NODE":230.872,"ARG_OF_PERICENTER":89.9524,"MEAN_ANOMALY":270.1878,"EPHEMERIS_TYPE":0,"CLASSIFICATION_TYPE":"U","NORAD_CAT_ID":56064,"ELEMENT_SET_NO":999,"REV_AT_EPOCH":15757,"BSTAR":0.00023504,"MEAN_MOTION_DOT":1.03e-06,"MEAN_MOTION_DDOT":0.0},{"OBJECT_NAME":"ONEWEB-0576","OBJECT_ID":"2023-043V","EPOCH":"2026-06-06T13:46:35.088672","MEAN_MOTION":13.16593135,"ECCENTRICITY":0.0002259,"INCLINATION":87.9108,"RA_OF_ASC_NODE":230.8825,"ARG_OF_PERICENTER":94.5614,"MEAN_ANOMALY":265.5775,"EPHEMERIS_TYPE":0,"CLASSIFICATION_TYPE":"U","NORAD_CAT_ID":56065,"ELEMENT_SET_NO":999,"REV_AT_EPOCH":15756,"BSTAR":0.00015984999999999998,"MEAN_MOTION_DOT":7.4e-07,"MEAN_MOTION_DDOT":0.0},{"OBJECT_NAME":"ONEWEB-0577","OBJECT_ID":"2023-043W","EPOCH":"2026-06-06T13:55:42.572640","MEAN_MOTION":13.16593225,"ECCENTRICITY":0.0002527,"INCLINATION":87.9108,"RA_OF_ASC_NODE":230.8789,"ARG_OF_PERICENTER":82.4294,"MEAN_ANOMALY":277.7124,"EPHEMERIS_TYPE":0,"CLASSIFICATION_TYPE":"U","NORAD_CAT_ID":56066,"ELEMENT_SET_NO":999,"REV_AT_EPOCH":15759,"BSTAR":0.00018776,"MEAN_MOTION_DOT":8.5e-07,"MEAN_MOTION_DDOT":0.0},{"OBJECT_NAME":"ONEWEB-0578","OBJECT_ID":"2023-043X","EPOCH":"2026-06-06T12:07:22.362816","MEAN_MOTION":13.21829349,"ECCENTRICITY":0.0002354,"INCLINATION":87.9258,"RA_OF_ASC_NODE":246.0974,"ARG_OF_PERICENTER":100.696,"MEAN_ANOMALY":259.4439,"EPHEMERIS_TYPE":0,"CLASSIFICATION_TYPE":"U","NORAD_CAT_ID":56067,"ELEMENT_SET_NO":999,"REV_AT_EPOCH":15682,"BSTAR":-0.00040779,"MEAN_MOTION_DOT":-1.55e-06,"MEAN_MOTION_DDOT":0.0},{"OBJECT_NAME":"ONEWEB-0579","OBJECT_ID":"2023-043Y","EPOCH":"2026-06-06T11:55:17.192928","MEAN_MOTION":13.21826547,"ECCENTRICITY":0.0001703,"INCLINATION":87.9269,"RA_OF_ASC_NODE":246.0958,"ARG_OF_PERICENTER":96.8551,"MEAN_ANOMALY":263.2777,"EPHEMERIS_TYPE":0,"CLASSIFICATION_TYPE":"U","NORAD_CAT_ID":56068,"ELEMENT_SET_NO":999,"REV_AT_EPOCH":15683,"BSTAR":0.0001568,"MEAN_MOTION_DOT":7.8e-07,"MEAN_MOTION_DDOT":0.0},{"OBJECT_NAME":"ONEWEB-0581","OBJECT_ID":"2023-043Z","EPOCH":"2026-06-06T14:04:48.826272","MEAN_MOTION":13.1659617,"ECCENTRICITY":0.0002284,"INCLINATION":87.91,"RA_OF_ASC_NODE":230.8891,"ARG_OF_PERICENTER":84.0304,"MEAN_ANOMALY":276.1087,"EPHEMERIS_TYPE":0,"CLASSIFICATION_TYPE":"U","NORAD_CAT_ID":56069,"ELEMENT_SET_NO":999,"REV_AT_EPOCH":15756,"BSTAR":0.00011592,"MEAN_MOTION_DOT":5.7e-07,"MEAN_MOTION_DDOT":0.0},{"OBJECT_NAME":"ONEWEB-0609","OBJECT_ID":"2023-043AA","EPOCH":"2026-06-06T14:37:33.218400","MEAN_MOTION":13.15548346,"ECCENTRICITY":0.0001925,"INCLINATION":87.9001,"RA_OF_ASC_NODE":261.3194,"ARG_OF_PERICENTER":102.5688,"MEAN_ANOMALY":257.5657,"EPHEMERIS_TYPE":0,"CLASSIFICATION_TYPE":"U","NORAD_CAT_ID":56070,"ELEMENT_SET_NO":999,"REV_AT_EPOCH":15504,"BSTAR":-0.00015628000000000001,"MEAN_MOTION_DOT":-4.6e-07,"MEAN_MOTION_DDOT":0.0},{"OBJECT_NAME":"ONEWEB-0613","OBJECT_ID":"2023-043AB","EPOCH":"2026-06-06T12:44:36.292704","MEAN_MOTION":13.15549545,"ECCENTRICITY":0.0001623,"INCLINATION":87.8995,"RA_OF_ASC_NODE":261.3469,"ARG_OF_PERICENTER":102.4228,"MEAN_ANOMALY":257.7084,"EPHEMERIS_TYPE":0,"CLASSIFICATION_TYPE":"U","NORAD_CAT_ID":56071,"ELEMENT_SET_NO":999,"REV_AT_EPOCH":15503,"BSTAR":-0.00023945,"MEAN_MOTION_DOT":-7.7e-07,"MEAN_MOTION_DDOT":0.0},{"OBJECT_NAME":"ONEWEB-0630","OBJECT_ID":"2023-043AC","EPOCH":"2026-06-06T12:37:44.669280","MEAN_MOTION":13.15550462,"ECCENTRICITY":0.0001716,"INCLINATION":87.9006,"RA_OF_ASC_NODE":261.3189,"ARG_OF_PERICENTER":103.3851,"MEAN_ANOMALY":256.7471,"EPHEMERIS_TYPE":0,"CLASSIFICATION_TYPE":"U","NORAD_CAT_ID":56072,"ELEMENT_SET_NO":999,"REV_AT_EPOCH":15502,"BSTAR":0.00017360000000000002,"MEAN_MOTION_DOT":7.8e-07,"MEAN_MOTION_DDOT":0.0},{"OBJECT_NAME":"ONEWEB-0632","OBJECT_ID":"2023-043AD","EPOCH":"2026-06-06T12:30:55.387296","MEAN_MOTION":13.15548335,"ECCENTRICITY":0.0001991,"INCLINATION":87.9003,"RA_OF_ASC_NODE":261.3383,"ARG_OF_PERICENTER":95.4496,"MEAN_ANOMALY":264.6861,"EPHEMERIS_TYPE":0,"CLASSIFICATION_TYPE":"U","NORAD_CAT_ID":56073,"ELEMENT_SET_NO":999,"REV_AT_EPOCH":15502,"BSTAR":0.00033275,"MEAN_MOTION_DOT":1.38e-06,"MEAN_MOTION_DDOT":0.0},{"OBJECT_NAME":"ONEWEB-0633","OBJECT_ID":"2023-043AE","EPOCH":"2026-06-06T12:21:46.120032","MEAN_MOTION":13.15548732,"ECCENTRICITY":0.0001652,"INCLINATION":87.9009,"RA_OF_ASC_NODE":261.3141,"ARG_OF_PERICENTER":109.7083,"MEAN_ANOMALY":250.4226,"EPHEMERIS_TYPE":0,"CLASSIFICATION_TYPE":"U","NORAD_CAT_ID":56074,"ELEMENT_SET_NO":999,"REV_AT_EPOCH":15500,"BSTAR":0.00016602,"MEAN_MOTION_DOT":7.5e-07,"MEAN_MOTION_DDOT":0.0},{"OBJECT_NAME":"ONEWEB-0634","OBJECT_ID":"2023-043AF","EPOCH":"2026-06-06T13:50:47.006880","MEAN_MOTION":13.1554822,"ECCENTRICITY":0.0002187,"INCLINATION":87.9,"RA_OF_ASC_NODE":261.3431,"ARG_OF_PERICENTER":107.6976,"MEAN_ANOMALY":252.4394,"EPHEMERIS_TYPE":0,"CLASSIFICATION_TYPE":"U","NORAD_CAT_ID":56075,"ELEMENT_SET_NO":999,"REV_AT_EPOCH":15500,"BSTAR":0.00039704000000000003,"MEAN_MOTION_DOT":1.62e-06,"MEAN_MOTION_DDOT":0.0},{"OBJECT_NAME":"ONEWEB-0635","OBJECT_ID":"2023-043AG","EPOCH":"2026-06-06T13:43:55.823232","MEAN_MOTION":13.1555047,"ECCENTRICITY":0.0002045,"INCLINATION":87.9008,"RA_OF_ASC_NODE":261.3056,"ARG_OF_PERICENTER":93.3677,"MEAN_ANOMALY":266.7688,"EPHEMERIS_TYPE":0,"CLASSIFICATION_TYPE":"U","NORAD_CAT_ID":56076,"ELEMENT_SET_NO":999,"REV_AT_EPOCH":15503,"BSTAR":0.00042086,"MEAN_MOTION_DOT":1.71e-06,"MEAN_MOTION_DDOT":0.0},{"OBJECT_NAME":"ONEWEB-0636","OBJECT_ID":"2023-043AH","EPOCH":"2026-06-06T13:32:32.044992","MEAN_MOTION":13.15549043,"ECCENTRICITY":0.0002039,"INCLINATION":87.9001,"RA_OF_ASC_NODE":261.314,"ARG_OF_PERICENTER":94.7571,"MEAN_ANOMALY":265.3792,"EPHEMERIS_TYPE":0,"CLASSIFICATION_TYPE":"U","NORAD_CAT_ID":56077,"ELEMENT_SET_NO":999,"REV_AT_EPOCH":15501,"BSTAR":2.6468000000000005e-05,"MEAN_MOTION_DOT":2.3e-07,"MEAN_MOTION_DDOT":0.0}]