ONEWEB-0568             
1 56062U 23043S   26157.59935608  .00000076  00000+0  16564-3 0  9994
2 56062  87.9106 230.8740 0002286  99.3073 260.8317 13.16594721157587
ONEWEB-0574             
1 56063U 23043T   26157.51857673  .00000132  00000+0  28834-3 0  9998
2 56063  87.9279 246.0961 0002087  94.6735 265.4637 13.21826740156866
ONEWEB-0575             
1 56064U 23043U   26157.59302359  .00000103  00000+0  23504-3 0  9990
2 56064  87.9106 230.8720 0002369  89.9524 270.1878 13.16594559157579
ONEWEB-0576             
1 56065U 23043V   26157.57401723  .00000074  00000+0  15985-3 0  9995
2 56065  87.9108 230.8825 0002259  94.5614 265.5775 13.16593135157560
ONEWEB-0577             
1 56066U 23043W   26157.58035385  .00000085  00000+0  18776-3 0  9997
2 56066  87.9108 230.8789 0002527  82.4294 277.7124 13.16593225157594
ONEWEB-0578             
1 56067U 23043X   26157.50511994 -.00000155  00000+0 -40779-3 0  9993
2 56067  87.9258 246.0974 0002354 100.6960 259.4439 13.21829349156823
ONEWEB-0579             
1 56068U 23043Y   26157.49672677  .00000078  00000+0  15680-3 0  9993
2 56068  87.9269 246.0958 0001703  96.8551 263.2777 13.21826547156833
ONEWEB-0581             
1 56069U 23043Z   26157.58667623  .00000057  00000+0  11592-3 0  9994
2 56069  87.9100 230.8891 0002284  84.0304 276.1087 13.16596170157563
ONEWEB-0609             
1 56070U 23043AA  26157.60941225 -.00000046  00000+0 -15628-3 0  9996
2 56070  87.9001 261.3194 0001925 102.5688 257.5657 13.15548346155040
ONEWEB-0613             
1 56071U 23043AB  26157.53097561 -.00000077  00000+0 -23945-3 0  9999
2 56071  87.8995 261.3469 0001623 102.4228 257.7084 13.15549545155038
ONEWEB-0630             
1 56072U 23043AC  26157.52621145  .00000078  00000+0  17360-3 0  9993
2 56072  87.9006 261.3189 0001716 103.3851 256.7471 13.15550462155025
ONEWEB-0632             
1 56073U 23043AD  26157.52147439  .00000138  00000+0  33275-3 0  9993
2 56073  87.9003 261.3383 0001991  95.4496 264.6861 13.15548335155027
ONEWEB-0633             
1 56074U 23043AE  26157.51511713  .00000075  00000+0  16602-3 0  9998
2 56074  87.9009 261.3141 0001652 109.7083 250.4226 13.15548732155008
ONEWEB-0634             
1 56075U 23043AF  26157.57693295  .00000162  00000+0  39704-3 0  9996
2 56075  87.9000 261.3431 0002187 107.6976 252.4394 13.15548220155004
ONEWEB-0635             
1 56076U 23043AG  26157.57217388  .00000171  00000+0  42086-3 0  9999
2 56076  87.9008 261.3056 0002045  93.3677 266.7688 13.15550470155035
ONEWEB-0636             
1 56077U 23043AH  26157.56425978  .00000023  00000+0  26468-4 0  9998
2 56077  87.9001 261.3140 0002039  94.7571 265.3792 13.15549043155017
